{
  "type": "FeatureCollection",
  "features": [
    {
      "type": "Feature",
      "properties": {
        "norad_id": 39554,
        "name": "COSMOS 2251 DEB",
        "group": "cosmos-2251-debris",
        "lat": 48.730747492305156,
        "lon": -91.83912978638273,
        "alt_km": 524.1367207412386,
        "timestamp": "2025-12-20T05:41:50.429578+00:00",
        "meta_object_name": "COSMOS 2251 DEB",
        "meta_object_id": "1993-036BUL",
        "meta_epoch": "2025-12-10T06:12:03.924864",
        "meta_mean_motion": 15.10130993,
        "meta_eccentricity": 0.0002993,
        "meta_inclination": 74.0187,
        "meta_ra_of_asc_node": 269.7383,
        "meta_arg_of_pericenter": 74.7531,
        "meta_mean_anomaly": 81.5927,
        "meta_ephemeris_type": 0,
        "meta_classification_type": "U",
        "meta_norad_cat_id": 39554,
        "meta_element_set_no": 999,
        "meta_rev_at_epoch": 64347,
        "meta_bstar": 0.0046896,
        "meta_mean_motion_dot": 0.000773,
        "meta_mean_motion_ddot": 0,
        "tle_line1": "1 39554U 93036BUL 25344.25837876  .00077300  00000+0  46896-2 0  9992",
        "tle_line2": "2 39554  74.0187 269.7383 0002993  74.7531  81.5927 15.10130993643471"
      },
      "geometry": {
        "type": "Point",
        "coordinates": [
          -91.83912978638273,
          48.730747492305156
        ]
      }
    },
    {
      "type": "Feature",
      "properties": {
        "norad_id": 39583,
        "name": "COSMOS 2251 DEB",
        "group": "cosmos-2251-debris",
        "lat": 11.254950860425216,
        "lon": 49.525157073093894,
        "alt_km": 788.9874823219825,
        "timestamp": "2025-12-20T05:41:50.429588+00:00",
        "meta_object_name": "COSMOS 2251 DEB",
        "meta_object_id": "1993-036BUN",
        "meta_epoch": "2025-12-18T10:11:13.909920",
        "meta_mean_motion": 14.60542257,
        "meta_eccentricity": 0.01369227,
        "meta_inclination": 73.9324,
        "meta_ra_of_asc_node": 236.2973,
        "meta_arg_of_pericenter": 348.5451,
        "meta_mean_anomaly": 11.2605,
        "meta_ephemeris_type": 0,
        "meta_classification_type": "U",
        "meta_norad_cat_id": 39583,
        "meta_element_set_no": 999,
        "meta_rev_at_epoch": 61862,
        "meta_bstar": 0.001412125,
        "meta_mean_motion_dot": 7.803e-05,
        "meta_mean_motion_ddot": 0,
        "tle_line1": "1 39583U 93036BUN 25352.42446655  .00007803  00000+0  14121-2 0  9990",
        "tle_line2": "2 39583  73.9324 236.2973 0136922 348.5451  11.2605 14.60542257618627"
      },
      "geometry": {
        "type": "Point",
        "coordinates": [
          49.525157073093894,
          11.254950860425216
        ]
      }
    },
    {
      "type": "Feature",
      "properties": {
        "norad_id": 39585,
        "name": "COSMOS 2251 DEB",
        "group": "cosmos-2251-debris",
        "lat": -53.64141064146848,
        "lon": -95.82787978657966,
        "alt_km": 714.0017555575823,
        "timestamp": "2025-12-20T05:41:50.429599+00:00",
        "meta_object_name": "COSMOS 2251 DEB",
        "meta_object_id": "1993-036BUQ",
        "meta_epoch": "2025-12-17T13:45:47.587680",
        "meta_mean_motion": 14.58681164,
        "meta_eccentricity": 0.00655713,
        "meta_inclination": 74.0421,
        "meta_ra_of_asc_node": 292.1145,
        "meta_arg_of_pericenter": 51.6529,
        "meta_mean_anomaly": 309.0503,
        "meta_ephemeris_type": 0,
        "meta_classification_type": "U",
        "meta_norad_cat_id": 39585,
        "meta_element_set_no": 999,
        "meta_rev_at_epoch": 62591,
        "meta_bstar": 0.00024435975,
        "meta_mean_motion_dot": 1.143e-05,
        "meta_mean_motion_ddot": 0,
        "tle_line1": "1 39585U 93036BUQ 25351.57346745  .00001143  00000+0  24436-3 0  9998",
        "tle_line2": "2 39585  74.0421 292.1145 0065571  51.6529 309.0503 14.58681164625913"
      },
      "geometry": {
        "type": "Point",
        "coordinates": [
          -95.82787978657966,
          -53.64141064146848
        ]
      }
    },
    {
      "type": "Feature",
      "properties": {
        "norad_id": 39586,
        "name": "COSMOS 2251 DEB",
        "group": "cosmos-2251-debris",
        "lat": 10.2781475112547,
        "lon": 31.808548221044514,
        "alt_km": 894.9300661420821,
        "timestamp": "2025-12-20T05:41:50.429609+00:00",
        "meta_object_name": "COSMOS 2251 DEB",
        "meta_object_id": "1993-036BUR",
        "meta_epoch": "2025-12-15T23:50:08.053728",
        "meta_mean_motion": 14.21232237,
        "meta_eccentricity": 0.01008868,
        "meta_inclination": 74.0082,
        "meta_ra_of_asc_node": 222.4068,
        "meta_arg_of_pericenter": 356.2296,
        "meta_mean_anomaly": 66.1426,
        "meta_ephemeris_type": 0,
        "meta_classification_type": "U",
        "meta_norad_cat_id": 39586,
        "meta_element_set_no": 999,
        "meta_rev_at_epoch": 61018,
        "meta_bstar": 0.00043436803,
        "meta_mean_motion_dot": 9.7e-06,
        "meta_mean_motion_ddot": 0,
        "tle_line1": "1 39586U 93036BUR 25349.99314877  .00000970  00000+0  43437-3 0  9992",
        "tle_line2": "2 39586  74.0082 222.4068 0100886 356.2296  66.1426 14.21232237610182"
      },
      "geometry": {
        "type": "Point",
        "coordinates": [
          31.808548221044514,
          10.2781475112547
        ]
      }
    },
    {
      "type": "Feature",
      "properties": {
        "norad_id": 39591,
        "name": "COSMOS 2251 DEB",
        "group": "cosmos-2251-debris",
        "lat": -66.57933378555816,
        "lon": 94.27452156039175,
        "alt_km": 759.9506198604413,
        "timestamp": "2025-12-20T05:41:50.429619+00:00",
        "meta_object_name": "COSMOS 2251 DEB",
        "meta_object_id": "1993-036BUW",
        "meta_epoch": "2025-12-19T09:05:27.177792",
        "meta_mean_motion": 14.41824759,
        "meta_eccentricity": 0.002936,
        "meta_inclination": 74.0196,
        "meta_ra_of_asc_node": 234.4485,
        "meta_arg_of_pericenter": 346.2019,
        "meta_mean_anomaly": 131.9176,
        "meta_ephemeris_type": 0,
        "meta_classification_type": "U",
        "meta_norad_cat_id": 39591,
        "meta_element_set_no": 999,
        "meta_rev_at_epoch": 61872,
        "meta_bstar": 0.0001972,
        "meta_mean_motion_dot": 6.21e-06,
        "meta_mean_motion_ddot": 0,
        "tle_line1": "1 39591U 93036BUW 25353.37878678  .00000621  00000+0  19720-3 0  9990",
        "tle_line2": "2 39591  74.0196 234.4485 0029360 346.2019 131.9176 14.41824759618728"
      },
      "geometry": {
        "type": "Point",
        "coordinates": [
          94.27452156039175,
          -66.57933378555816
        ]
      }
    },
    {
      "type": "Feature",
      "properties": {
        "norad_id": 40218,
        "name": "COSMOS 2251 DEB",
        "group": "cosmos-2251-debris",
        "lat": 36.88654891052727,
        "lon": 42.52569236483299,
        "alt_km": 762.1746383886812,
        "timestamp": "2025-12-20T05:41:50.429630+00:00",
        "meta_object_name": "COSMOS 2251 DEB",
        "meta_object_id": "1993-036BUX",
        "meta_epoch": "2025-12-14T10:48:31.251744",
        "meta_mean_motion": 14.41597705,
        "meta_eccentricity": 0.00168728,
        "meta_inclination": 74.0298,
        "meta_ra_of_asc_node": 245.6562,
        "meta_arg_of_pericenter": 328.6,
        "meta_mean_anomaly": 31.4147,
        "meta_ephemeris_type": 0,
        "meta_classification_type": "U",
        "meta_norad_cat_id": 40218,
        "meta_element_set_no": 999,
        "meta_rev_at_epoch": 58886,
        "meta_bstar": 0.00046023204,
        "meta_mean_motion_dot": 1.474e-05,
        "meta_mean_motion_ddot": 0,
        "tle_line1": "1 40218U 93036BUX 25348.45036171  .00001474  00000+0  46023-3 0  9998",
        "tle_line2": "2 40218  74.0298 245.6562 0016872 328.6000  31.4147 14.41597705588868"
      },
      "geometry": {
        "type": "Point",
        "coordinates": [
          42.52569236483299,
          36.88654891052727
        ]
      }
    },
    {
      "type": "Feature",
      "properties": {
        "norad_id": 40223,
        "name": "COSMOS 2251 DEB",
        "group": "cosmos-2251-debris",
        "lat": -5.963989119790773,
        "lon": 71.55500835025875,
        "alt_km": 554.3053414064761,
        "timestamp": "2025-12-20T05:41:50.429640+00:00",
        "meta_object_name": "COSMOS 2251 DEB",
        "meta_object_id": "1993-036BVC",
        "meta_epoch": "2025-12-16T06:05:42.901728",
        "meta_mean_motion": 15.04017245,
        "meta_eccentricity": 0.00151313,
        "meta_inclination": 73.9375,
        "meta_ra_of_asc_node": 81.4737,
        "meta_arg_of_pericenter": 287.2028,
        "meta_mean_anomaly": 105.0934,
        "meta_ephemeris_type": 0,
        "meta_classification_type": "U",
        "meta_norad_cat_id": 40223,
        "meta_element_set_no": 999,
        "meta_rev_at_epoch": 59427,
        "meta_bstar": 0.0031787319,
        "meta_mean_motion_dot": 0.00044299,
        "meta_mean_motion_ddot": 0,
        "tle_line1": "1 40223U 93036BVC 25350.25396877  .00044299  00000+0  31787-2 0  9999",
        "tle_line2": "2 40223  73.9375  81.4737 0015131 287.2028 105.0934 15.04017245594275"
      },
      "geometry": {
        "type": "Point",
        "coordinates": [
          71.55500835025875,
          -5.963989119790773
        ]
      }
    }
  ]
}